0 ATLAS 35F R/B
1 11705U 80011B   13283.51317181 -.00000533  00000-0 -29951-2 0  2172
2 11705 063.7922 031.2167 5131269 358.5835 000.3947 04.97598571608810
0 ATLAS 35F R/B
1 11705U 80011B   13285.12087323 -.00000166  00000-0 -63381-3 0  2182
2 11705 063.7918 030.4782 5131236 358.5588 000.3989 04.97592032608898
0 ATLAS 35F R/B
1 11705U 80011B   13285.72376716 -.00000066  00000-0  22208-4 0  2198
2 11705 063.7919 030.2015 5131196 358.5509 000.3991 04.97590326608925
0 ATLAS 35F R/B
1 11705U 80011B   13291.35088889  .00000691  00000-0  47566-2 0  2202
2 11705 063.7946 027.6199 5130887 358.4727 000.4331 04.97583734609199
0 ATLAS 35F R/B
1 11705U 80011B   13292.35574920  .00000683  00000-0  46688-2 0  2215
2 11705 063.7951 027.1590 5130810 358.4592 000.4450 04.97585395609244
0 ATLAS 35F R/B
1 11705U 80011B   13293.36060946  .00000635  00000-0  43461-2 0  2229
2 11705 063.7956 026.6981 5130738 358.4448 000.4569 04.97587767609297
0 ATLAS 35F R/B
1 11705U 80011B   13294.36546881  .00000528  00000-0  36654-2 0  2235
2 11705 063.7961 026.2372 5130642 358.4317 000.4672 04.97590530609345
0 ATLAS 35F R/B
1 11705U 80011B   13295.37032520  .00000381  00000-0  27511-2 0  2247
2 11705 063.7964 025.7763 5130542 358.4185 000.4757 04.97593643609407
